ONEWEB-0207             
1 48242U 21031AJ  24292.59556422 -.00000528  00000+0 -14597-2 0  9998
2 48242  87.9008  50.3072 0001473 100.6182 259.5114 13.14504112168604
ONEWEB-0208             
1 48243U 21031AK  24292.57733883 -.00000013  00000+0 -68450-4 0  9993
2 48243  87.9008  50.3247 0001714  94.0301 266.1024 13.14504656168614
ONEWEB-0200             
1 48244U 21031AL  24292.61698319  .00000129  00000+0  31446-3 0  9993
2 48244  87.9008  50.3132 0001784  91.8534 268.2800 13.14502135168545
ONEWEB-0217             
1 48245U 21031AM  24292.78507285  .00000311  00000+0  80479-3 0  9996
2 48245  87.9005  50.2638 0001865  89.2245 270.9098 13.14501096168514
ONEWEB-0211             
1 48767U 21045A   24292.68994688  .00000192  00000+0  47590-3 0  9990
2 48767  87.9125  19.8878 0002020  99.6302 260.5057 13.15546606164676
ONEWEB-0223             
1 48768U 21045B   24292.94032164  .00000005  00000+0 -21077-4 0  9999
2 48768  87.9130  19.8492 0002443  99.2131 260.9275 13.15549773164696
ONEWEB-0230             
1 48769U 21045C   24292.53149172  .00000102  00000+0  23764-3 0  9994
2 48769  87.9127  19.9996 0001914 104.7557 255.3786 13.15547230164904
ONEWEB-0237             
1 48770U 21045D   24292.52040305  .00000003  00000+0 -25843-4 0  9995
2 48770  87.9132  19.9403 0002274 100.5834 259.5552 13.15547697164620
